[
    {
        "Altitude(m)": 558927.9544335776,
        "Argument of Periapsis(deg)": 0.013245982221427002,
        "Eccentricity": 0.0,
        "Inclination(deg)": 53.0,
        "Latitude(deg)": -20.103890699632018,
        "Longitude(deg)": -172.4976217694968,
        "Mean Anomaly(deg)": -25.27131426484485,
        "RAAN(deg)": 304.9802867370561,
        "Satellite Name": "Starlink Shell 1 1361",
        "Satellite Number": 1361,
        "Semi-Major Axis(m)": 6931778.249405717,
        "Time(s)": 380
    },
    {
        "Altitude(m)": 558770.9223820694,
        "Argument of Periapsis(deg)": 0.013594560700938237,
        "Eccentricity": 0.0,
        "Inclination(deg)": 53.0,
        "Latitude(deg)": -19.61984029712906,
        "Longitude(deg)": -172.11390207591057,
        "Mean Anomaly(deg)": -24.644483061288053,
        "RAAN(deg)": 304.9797679669786,
        "Satellite Name": "Starlink Shell 1 1361",
        "Satellite Number": 1361,
        "Semi-Major Axis(m)": 6931778.249405717,
        "Time(s)": 390
    },
    {
        "Altitude(m)": 558615.3980705239,
        "Argument of Periapsis(deg)": 0.013943139180449475,
        "Eccentricity": 0.0,
        "Inclination(deg)": 53.0,
        "Latitude(deg)": -19.134752508164766,
        "Longitude(deg)": -171.73270749024132,
        "Mean Anomaly(deg)": -24.017651857731305,
        "RAAN(deg)": 304.9792491969011,
        "Satellite Name": "Starlink Shell 1 1361",
        "Satellite Number": 1361,
        "Semi-Major Axis(m)": 6931778.249405717,
        "Time(s)": 400
    },
    {
        "Altitude(m)": 558461.4349700377,
        "Argument of Periapsis(deg)": 0.014291717659960712,
        "Eccentricity": 0.0,
        "Inclination(deg)": 53.0,
        "Latitude(deg)": -18.648660000205233,
        "Longitude(deg)": -171.35396067106072,
        "Mean Anomaly(deg)": -23.39082065417466,
        "RAAN(deg)": 304.97873042682363,
        "Satellite Name": "Starlink Shell 1 1361",
        "Satellite Number": 1361,
        "Semi-Major Axis(m)": 6931778.249405717,
        "Time(s)": 410
    },
    {
        "Altitude(m)": 558309.0857068759,
        "Argument of Periapsis(deg)": 0.014640296139471948,
        "Eccentricity": 0.0,
        "Inclination(deg)": 53.0,
        "Latitude(deg)": -18.16159488828554,
        "Longitude(deg)": -170.9775857739248,
        "Mean Anomaly(deg)": -22.763989450617913,
        "RAAN(deg)": 304.97821165674617,
        "Satellite Name": "Starlink Shell 1 1361",
        "Satellite Number": 1361,
        "Semi-Major Axis(m)": 6931778.249405717,
        "Time(s)": 420
    },
    {
        "Altitude(m)": 558158.4020391228,
        "Argument of Periapsis(deg)": 0.014988874618983185,
        "Eccentricity": 0.0,
        "Inclination(deg)": 53.0,
        "Latitude(deg)": -17.6735887549917,
        "Longitude(deg)": -170.60350792180387,
        "Mean Anomaly(deg)": -22.137158247061116,
        "RAAN(deg)": 304.9776928866687,
        "Satellite Name": "Starlink Shell 1 1361",
        "Satellite Number": 1361,
        "Semi-Major Axis(m)": 6931778.249405717,
        "Time(s)": 430
    },
    {
        "Altitude(m)": 558009.4348337435,
        "Argument of Periapsis(deg)": 0.015337453098494424,
        "Eccentricity": 0.0,
        "Inclination(deg)": 53.0,
        "Latitude(deg)": -17.18467267000271,
        "Longitude(deg)": -170.23165267519468,
        "Mean Anomaly(deg)": -21.51032704350447,
        "RAAN(deg)": 304.97717411659124,
        "Satellite Name": "Starlink Shell 1 1361",
        "Satellite Number": 1361,
        "Semi-Major Axis(m)": 6931778.249405717,
        "Time(s)": 440
    },
    {
        "Altitude(m)": 557862.2340440643,
        "Argument of Periapsis(deg)": 0.01568603157800566,
        "Eccentricity": 0.0,
        "Inclination(deg)": 53.0,
        "Latitude(deg)": -16.69487720920164,
        "Longitude(deg)": -169.86194701483774,
        "Mean Anomaly(deg)": -20.88349583994783,
        "RAAN(deg)": 304.9766553465137,
        "Satellite Name": "Starlink Shell 1 1361",
        "Satellite Number": 1361,
        "Semi-Major Axis(m)": 6931778.249405717,
        "Time(s)": 450
    },
    {
        "Altitude(m)": 557716.848687738,
        "Argument of Periapsis(deg)": 0.0160346100575169,
        "Eccentricity": 0.0,
        "Inclination(deg)": 53.0,
        "Latitude(deg)": -16.20423247337369,
        "Longitude(deg)": -169.49431881133862,
        "Mean Anomaly(deg)": -20.25666463639103,
        "RAAN(deg)": 304.97613657643626,
        "Satellite Name": "Starlink Shell 1 1361",
        "Satellite Number": 1361,
        "Semi-Major Axis(m)": 6931778.249405717,
        "Time(s)": 460
    },
    {
        "Altitude(m)": 557573.326825109,
        "Argument of Periapsis(deg)": 0.016383188537028134,
        "Eccentricity": 0.0,
        "Inclination(deg)": 53.0,
        "Latitude(deg)": -15.712768106498432,
        "Longitude(deg)": -169.12869629460755,
        "Mean Anomaly(deg)": -19.629833432834335,
        "RAAN(deg)": 304.9756178063588,
        "Satellite Name": "Starlink Shell 1 1361",
        "Satellite Number": 1361,
        "Semi-Major Axis(m)": 6931778.249405717,
        "Time(s)": 470
    },
    {
        "Altitude(m)": 557431.7155380863,
        "Argument of Periapsis(deg)": 0.01673176701653937,
        "Eccentricity": 0.0,
        "Inclination(deg)": 53.0,
        "Latitude(deg)": -15.220513313645666,
        "Longitude(deg)": -168.76500903602724,
        "Mean Anomaly(deg)": -19.00300222927764,
        "RAAN(deg)": 304.97509903628134,
        "Satellite Name": "Starlink Shell 1 1361",
        "Satellite Number": 1361,
        "Semi-Major Axis(m)": 6931778.249405717,
        "Time(s)": 480
    },
    {
        "Altitude(m)": 557292.0609094806,
        "Argument of Periapsis(deg)": 0.017080345496050607,
        "Eccentricity": 0.0,
        "Inclination(deg)": 53.0,
        "Latitude(deg)": -14.727496878492799,
        "Longitude(deg)": -168.40318741763562,
        "Mean Anomaly(deg)": -18.376171025720943,
        "RAAN(deg)": 304.9745802662038,
        "Satellite Name": "Starlink Shell 1 1361",
        "Satellite Number": 1361,
        "Semi-Major Axis(m)": 6931778.249405717,
        "Time(s)": 490
    },
    {
        "Altitude(m)": 557154.4080028249,
        "Argument of Periapsis(deg)": 0.017428923975561842,
        "Eccentricity": 0.0,
        "Inclination(deg)": 53.0,
        "Latitude(deg)": -14.233747180472712,
        "Longitude(deg)": -168.0431621012269,
        "Mean Anomaly(deg)": -17.749339822164146,
        "RAAN(deg)": 304.97406149612635,
        "Satellite Name": "Starlink Shell 1 1361",
        "Satellite Number": 1361,
        "Semi-Major Axis(m)": 6931778.249405717,
        "Time(s)": 500
    },
    {
        "Altitude(m)": 557018.8008426965,
        "Argument of Periapsis(deg)": 0.01777750245507308,
        "Eccentricity": 0.0,
        "Inclination(deg)": 53.0,
        "Latitude(deg)": -13.739292211561967,
        "Longitude(deg)": -167.68486501027132,
        "Mean Anomaly(deg)": -17.12250861860745,
        "RAAN(deg)": 304.97354272604895,
        "Satellite Name": "Starlink Shell 1 1361",
        "Satellite Number": 1361,
        "Semi-Major Axis(m)": 6931778.249405717,
        "Time(s)": 510
    },
    {
        "Altitude(m)": 556885.2823955391,
        "Argument of Periapsis(deg)": 0.018126080934584315,
        "Eccentricity": 0.0,
        "Inclination(deg)": 53.0,
        "Latitude(deg)": -13.24415959272582,
        "Longitude(deg)": -167.32822879892854,
        "Mean Anomaly(deg)": -16.495677415050803,
        "RAAN(deg)": 304.9730239559714,
        "Satellite Name": "Starlink Shell 1 1361",
        "Satellite Number": 1361,
        "Semi-Major Axis(m)": 6931778.249405717,
        "Time(s)": 520
    },
    {
        "Altitude(m)": 556753.8945510462,
        "Argument of Periapsis(deg)": 0.018474659414095554,
        "Eccentricity": 0.0,
        "Inclination(deg)": 53.0,
        "Latitude(deg)": -12.74837659003153,
        "Longitude(deg)": -166.9731863210512,
        "Mean Anomaly(deg)": -15.86884621149406,
        "RAAN(deg)": 304.97250518589397,
        "Satellite Name": "Starlink Shell 1 1361",
        "Satellite Number": 1361,
        "Semi-Major Axis(m)": 6931778.249405717,
        "Time(s)": 530
    },
    {
        "Altitude(m)": 556624.6781039967,
        "Argument of Periapsis(deg)": 0.018823237893606792,
        "Eccentricity": 0.0,
        "Inclination(deg)": 53.0,
        "Latitude(deg)": -12.2519701304382,
        "Longitude(deg)": -166.61967161206934,
        "Mean Anomaly(deg)": -15.242015007937262,
        "RAAN(deg)": 304.97198641581645,
        "Satellite Name": "Starlink Shell 1 1361",
        "Satellite Number": 1361,
        "Semi-Major Axis(m)": 6931778.249405717,
        "Time(s)": 540
    },
    {
        "Altitude(m)": 556497.6727367169,
        "Argument of Periapsis(deg)": 0.019171816373118027,
        "Eccentricity": 0.0,
        "Inclination(deg)": 53.0,
        "Latitude(deg)": -11.754966817281643,
        "Longitude(deg)": -166.2676193580245,
        "Mean Anomaly(deg)": -14.615183804380617,
        "RAAN(deg)": 304.971467645739,
        "Satellite Name": "Starlink Shell 1 1361",
        "Satellite Number": 1361,
        "Semi-Major Axis(m)": 6931778.249405717,
        "Time(s)": 550
    },
    {
        "Altitude(m)": 556372.9170020255,
        "Argument of Periapsis(deg)": 0.019520394852629266,
        "Eccentricity": 0.0,
        "Inclination(deg)": 53.0,
        "Latitude(deg)": -11.257392945463017,
        "Longitude(deg)": -165.91696436464028,
        "Mean Anomaly(deg)": -13.98835260082387,
        "RAAN(deg)": 304.9709488756616,
        "Satellite Name": "Starlink Shell 1 1361",
        "Satellite Number": 1361,
        "Semi-Major Axis(m)": 6931778.249405717,
        "Time(s)": 560
    }
]